{"type": "FeatureCollection", "features": [ {"type": "Feature", "properties": {"norad_id": 59598, "name": "GSAT0225 (GALILEO 29)", "group": "gnss", "lat": 50.14401729835607, "lon": -130.6551889675144, "alt_km": 23213.692693360408, "timestamp": "2025-12-11T07:02:23.974320+00:00", "meta": {"OBJECT_NAME": "GSAT0225 (GALILEO 29)", "OBJECT_ID": "2024-079A", "EPOCH": "2025-12-10T12:47:07.958400", "MEAN_MOTION": 1.70474727, "ECCENTRICITY": 0.00020453, "INCLINATION": 55.0006, "RA_OF_ASC_NODE": 106.3566, "ARG_OF_PERICENTER": 176.2356, "MEAN_ANOMALY": 187.363, "EPHEMERIS_TYPE": 0, "CLASSIFICATION_TYPE": "U", "NORAD_CAT_ID": 59598, "ELEMENT_SET_NO": 999, "REV_AT_EPOCH": 1010, "BSTAR": 0, "MEAN_MOTION_DOT": 1e-07, "MEAN_MOTION_DDOT": 0}, "tle": {"line1": "1 59598U 24079A   25344.53273100  .00000010  00000+0  00000+0 0  9996", "line2": "2 59598  55.0006 106.3566 0002045 176.2356 187.3630  1.70474727 10101"}}, "geometry": {"type": "Point", "coordinates": [-130.6551889675144, 50.14401729835607]}}, {"type": "Feature", "properties": {"norad_id": 59600, "name": "GSAT0227 (GALILEO 30)", "group": "gnss", "lat": -1.7539793143712585, "lon": 105.09566144172261, "alt_km": 23226.876507876143, "timestamp": "2025-12-11T07:02:23.974331+00:00", "meta": {"OBJECT_NAME": "GSAT0227 (GALILEO 30)", "OBJECT_ID": "2024-079C", "EPOCH": "2025-12-08T22:48:42.234912", "MEAN_MOTION": 1.70474719, "ECCENTRICITY": 0.0003262, "INCLINATION": 54.9946, "RA_OF_ASC_NODE": 106.4003, "ARG_OF_PERICENTER": 114.182, "MEAN_ANOMALY": 245.816, "EPHEMERIS_TYPE": 0, "CLASSIFICATION_TYPE": "U", "NORAD_CAT_ID": 59600, "ELEMENT_SET_NO": 999, "REV_AT_EPOCH": 1012, "BSTAR": 0, "MEAN_MOTION_DOT": 9e-08, "MEAN_MOTION_DDOT": 0}, "tle": {"line1": "1 59600U 24079C   25342.95048883  .00000009  00000+0  00000+0 0  9990", "line2": "2 59600  54.9946 106.4003 0003262 114.1820 245.8160  1.70474719 10123"}}, "geometry": {"type": "Point", "coordinates": [105.09566144172261, -1.7539793143712585]}}, {"type": "Feature", "properties": {"norad_id": 61182, "name": "GSAT0232 (GALILEO 32)", "group": "gnss", "lat": -10.133613289075798, "lon": 53.6015679117455, "alt_km": 23218.362499854135, "timestamp": "2025-12-11T07:02:23.974342+00:00", "meta": {"OBJECT_NAME": "GSAT0232 (GALILEO 32)", "OBJECT_ID": "2024-167A", "EPOCH": "2025-12-10T16:21:03.753216", "MEAN_MOTION": 1.70473375, "ECCENTRICITY": 0.00019436, "INCLINATION": 55.2414, "RA_OF_ASC_NODE": 226.4872, "ARG_OF_PERICENTER": 211.0668, "MEAN_ANOMALY": 325.7159, "EPHEMERIS_TYPE": 0, "CLASSIFICATION_TYPE": "U", "NORAD_CAT_ID": 61182, "ELEMENT_SET_NO": 999, "REV_AT_EPOCH": 766, "BSTAR": 0, "MEAN_MOTION_DOT": 9e-08, "MEAN_MOTION_DDOT": 0}, "tle": {"line1": "1 61182U 24167A   25344.68129344  .00000009  00000+0  00000+0 0  9990", "line2": "2 61182  55.2414 226.4872 0001943 211.0668 325.7159  1.70473375  7661"}}, "geometry": {"type": "Point", "coordinates": [53.6015679117455, -10.133613289075798]}}, {"type": "Feature", "properties": {"norad_id": 61183, "name": "GSAT0226 (GALILEO 31)", "group": "gnss", "lat": -42.30580484041648, "lon": -172.67423250125046, "alt_km": 23229.57807350246, "timestamp": "2025-12-11T07:02:23.974354+00:00", "meta": {"OBJECT_NAME": "GSAT0226 (GALILEO 31)", "OBJECT_ID": "2024-167B", "EPOCH": "2025-12-09T21:57:08.318304", "MEAN_MOTION": 1.70473488, "ECCENTRICITY": 8.079e-05, "INCLINATION": 55.2402, "RA_OF_ASC_NODE": 226.5136, "ARG_OF_PERICENTER": 118.4795, "MEAN_ANOMALY": 60.4734, "EPHEMERIS_TYPE": 0, "CLASSIFICATION_TYPE": "U", "NORAD_CAT_ID": 61183, "ELEMENT_SET_NO": 999, "REV_AT_EPOCH": 762, "BSTAR": 0, "MEAN_MOTION_DOT": 1e-07, "MEAN_MOTION_DDOT": 0}, "tle": {"line1": "1 61183U 24167B   25343.91467961  .00000010  00000+0  00000+0 0  9998", "line2": "2 61183  55.2402 226.5136 0000807 118.4795  60.4734  1.70473488  7625"}}, "geometry": {"type": "Point", "coordinates": [-172.67423250125046, -42.30580484041648]}}, {"type": "Feature", "properties": {"norad_id": 61186, "name": "BEIDOU-3 M25 (C47)", "group": "gnss", "lat": -20.222825004491263, "lon": 143.90368021698808, "alt_km": 21531.217321640863, "timestamp": "2025-12-11T07:02:23.974370+00:00", "meta": {"OBJECT_NAME": "BEIDOU-3 M25 (C47)", "OBJECT_ID": "2024-168B", "EPOCH": "2025-12-09T12:38:32.089056", "MEAN_MOTION": 1.86229941, "ECCENTRICITY": 0.0005432, "INCLINATION": 54.6447, "RA_OF_ASC_NODE": 308.8306, "ARG_OF_PERICENTER": 296.174, "MEAN_ANOMALY": 164.5169, "EPHEMERIS_TYPE": 0, "CLASSIFICATION_TYPE": "U", "NORAD_CAT_ID": 61186, "ELEMENT_SET_NO": 999, "REV_AT_EPOCH": 825, "BSTAR": 0, "MEAN_MOTION_DOT": -7.8e-07, "MEAN_MOTION_DDOT": 0}, "tle": {"line1": "1 61186U 24168B   25343.52676029 -.00000078  00000+0  00000+0 0  9991", "line2": "2 61186  54.6447 308.8306 0005432 296.1740 164.5169  1.86229941  8254"}}, "geometry": {"type": "Point", "coordinates": [143.90368021698808, -20.222825004491263]}}, {"type": "Feature", "properties": {"norad_id": 61187, "name": "BEIDOU-3 M27 (C49)", "group": "gnss", "lat": -16.165952151546296, "lon": -63.13565879828673, "alt_km": 21523.8887193334, "timestamp": "2025-12-11T07:02:23.974382+00:00", "meta": {"OBJECT_NAME": "BEIDOU-3 M27 (C49)", "OBJECT_ID": "2024-168C", "EPOCH": "2025-12-10T08:23:50.553888", "MEAN_MOTION": 1.86230151, "ECCENTRICITY": 0.00023508, "INCLINATION": 54.6394, "RA_OF_ASC_NODE": 308.7857, "ARG_OF_PERICENTER": 335.0567, "MEAN_ANOMALY": 92.4403, "EPHEMERIS_TYPE": 0, "CLASSIFICATION_TYPE": "U", "NORAD_CAT_ID": 61187, "ELEMENT_SET_NO": 999, "REV_AT_EPOCH": 574, "BSTAR": 0, "MEAN_MOTION_DOT": -8.2e-07, "MEAN_MOTION_DDOT": 0}, "tle": {"line1": "1 61187U 24168C   25344.34989067 -.00000082  00000+0  00000+0 0  9997", "line2": "2 61187  54.6394 308.7857 0002350 335.0567  92.4403  1.86230151  5748"}}, "geometry": {"type": "Point", "coordinates": [-63.13565879828673, -16.165952151546296]}}, {"type": "Feature", "properties": {"norad_id": 62339, "name": "GPS BIII-7  (PRN 01)", "group": "gnss", "lat": -47.29162053232824, "lon": -67.77025163018585, "alt_km": 20165.889824291262, "timestamp": "2025-12-11T07:02:23.974396+00:00", "meta": {"OBJECT_NAME": "GPS BIII-7  (PRN 01)", "OBJECT_ID": "2024-242A", "EPOCH": "2025-12-07T21:14:38.700960", "MEAN_MOTION": 2.00567469, "ECCENTRICITY": 0.00119344, "INCLINATION": 54.9247, "RA_OF_ASC_NODE": 341.9365, "ARG_OF_PERICENTER": 343.8064, "MEAN_ANOMALY": 11.4848, "EPHEMERIS_TYPE": 0, "CLASSIFICATION_TYPE": "U", "NORAD_CAT_ID": 62339, "ELEMENT_SET_NO": 999, "REV_AT_EPOCH": 741, "BSTAR": 0, "MEAN_MOTION_DOT": -8.7e-07, "MEAN_MOTION_DDOT": 0}, "tle": {"line1": "1 62339U 24242A   25341.88517015 -.00000087  00000+0  00000+0 0  9991", "line2": "2 62339  54.9247 341.9365 0011934 343.8064  11.4848  2.00567469  7410"}}, "geometry": {"type": "Point", "coordinates": [-67.77025163018585, -47.29162053232824]}}, {"type": "Feature", "properties": {"norad_id": 62850, "name": "NVS-02 (IRNSS-1K)", "group": "gnss", "lat": -1.2594464879760998, "lon": 151.46237658600265, "alt_km": 30040.594951047042, "timestamp": "2025-12-11T07:02:23.974409+00:00", "meta": {"OBJECT_NAME": "NVS-02 (IRNSS-1K)", "OBJECT_ID": "2025-020A", "EPOCH": "2025-12-10T17:02:21.577344", "MEAN_MOTION": 2.17593045, "ECCENTRICITY": 0.73479067, "INCLINATION": 20.9881, "RA_OF_ASC_NODE": 328.395, "ARG_OF_PERICENTER": 24.9147, "MEAN_ANOMALY": 357.365, "EPHEMERIS_TYPE": 0, "CLASSIFICATION_TYPE": "U", "NORAD_CAT_ID": 62850, "ELEMENT_SET_NO": 999, "REV_AT_EPOCH": 687, "BSTAR": 0.00053430925, "MEAN_MOTION_DOT": 5.03e-06, "MEAN_MOTION_DDOT": 0}, "tle": {"line1": "1 62850U 25020A   25344.70997196  .00000503  00000+0  53431-3 0  9992", "line2": "2 62850  20.9881 328.3950 7347906  24.9147 357.3650  2.17593045  6870"}}, "geometry": {"type": "Point", "coordinates": [151.46237658600265, -1.2594464879760998]}}, {"type": "Feature", "properties": {"norad_id": 63130, "name": "COSMOS 2584 (704K)", "group": "gnss", "lat": -58.1741156747616, "lon": -52.07487706295417, "alt_km": 19119.96421382877, "timestamp": "2025-12-11T07:02:23.974420+00:00", "meta": {"OBJECT_NAME": "COSMOS 2584 (704K)", "OBJECT_ID": "2025-042A", "EPOCH": "2025-12-08T03:39:29.178720", "MEAN_MOTION": 2.13102925, "ECCENTRICITY": 0.0007602, "INCLINATION": 64.9737, "RA_OF_ASC_NODE": 79.3022, "ARG_OF_PERICENTER": 215.9611, "MEAN_ANOMALY": 144.0025, "EPHEMERIS_TYPE": 0, "CLASSIFICATION_TYPE": "U", "NORAD_CAT_ID": 63130, "ELEMENT_SET_NO": 999, "REV_AT_EPOCH": 597, "BSTAR": 0, "MEAN_MOTION_DOT": -1.2e-07, "MEAN_MOTION_DDOT": 0}, "tle": {"line1": "1 63130U 25042A   25342.15242105 -.00000012  00000+0  00000+0 0  9994", "line2": "2 63130  64.9737  79.3022 0007602 215.9611 144.0025  2.13102925  5976"}}, "geometry": {"type": "Point", "coordinates": [-52.07487706295417, -58.1741156747616]}}, {"type": "Feature", "properties": {"norad_id": 64202, "name": "GPS BIII-8  (PRN 21)", "group": "gnss", "lat": 41.7449876087718, "lon": -179.77075280310976, "alt_km": 20191.671658771735, "timestamp": "2025-12-11T07:02:23.974431+00:00", "meta": {"OBJECT_NAME": "GPS BIII-8  (PRN 21)", "OBJECT_ID": "2025-116A", "EPOCH": "2025-12-10T14:44:58.925760", "MEAN_MOTION": 2.0055838, "ECCENTRICITY": 0.0005302, "INCLINATION": 55.1043, "RA_OF_ASC_NODE": 38.7264, "ARG_OF_PERICENTER": 307.5969, "MEAN_ANOMALY": 48.0567, "EPHEMERIS_TYPE": 0, "CLASSIFICATION_TYPE": "U", "NORAD_CAT_ID": 64202, "ELEMENT_SET_NO": 999, "REV_AT_EPOCH": 408, "BSTAR": 0, "MEAN_MOTION_DOT": -9.2e-07, "MEAN_MOTION_DDOT": 0}, "tle": {"line1": "1 64202U 25116A   25344.61457090 -.00000092  00000+0  00000+0 0  9999", "line2": "2 64202  55.1043  38.7264 0005302 307.5969  48.0567  2.00558380  4086"}}, "geometry": {"type": "Point", "coordinates": [-179.77075280310976, 41.7449876087718]}}]}